[{"OBJECT_NAME":"TRANSPORTER-13 OBJECT M","OBJECT_ID":"2025-052M","EPOCH":"2026-03-09T16:54:10.026144","MEAN_MOTION":15.21138155,"ECCENTRICITY":0.00049134,"INCLINATION":97.4005,"RA_OF_ASC_NODE":322.6064,"ARG_OF_PERICENTER":116.6212,"MEAN_ANOMALY":243.5528,"EPHEMERIS_TYPE":0,"CLASSIFICATION_TYPE":"U","NORAD_CAT_ID":63221,"ELEMENT_SET_NO":999,"REV_AT_EPOCH":5471,"BSTAR":0.00025482264,"MEAN_MOTION_DOT":5.606e-5,"MEAN_MOTION_DDOT":0},{"OBJECT_NAME":"ION SCV-020","OBJECT_ID":"2025-135T","EPOCH":"2026-03-09T21:47:53.616480","MEAN_MOTION":15.20454047,"ECCENTRICITY":0.00028998,"INCLINATION":97.458,"RA_OF_ASC_NODE":184.8922,"ARG_OF_PERICENTER":140.0276,"MEAN_ANOMALY":220.1173,"EPHEMERIS_TYPE":0,"CLASSIFICATION_TYPE":"U","NORAD_CAT_ID":64545,"ELEMENT_SET_NO":999,"REV_AT_EPOCH":3976,"BSTAR":0.00023326396,"MEAN_MOTION_DOT":5.022e-5,"MEAN_MOTION_DDOT":0}]
